OBJECT_NAME,OBJECT_ID,EPOCH,MEAN_MOTION,ECCENTRICITY,INCLINATION,RA_OF_ASC_NODE,ARG_OF_PERICENTER,MEAN_ANOMALY,EPHEMERIS_TYPE,CLASSIFICATION_TYPE,NORAD_CAT_ID,ELEMENT_SET_NO,REV_AT_EPOCH,BSTAR,MEAN_MOTION_DOT,MEAN_MOTION_DDOT
ONEWEB-0667,2023-029AH,2026-07-06T04:39:30.638304,13.20772744,.00019065,87.9198,270.6441,101.7934,258.3413,0,U,55827,999,16365,.14257887E-3,.71E-6,0
ONEWEB-0669,2023-029AJ,2026-07-06T04:32:13.714368,13.20772902,.00018535,87.9189,270.6552,84.5191,275.6154,0,U,55828,999,16365,.314582E-3,.141E-5,0
ONEWEB-0670,2023-029AK,2026-07-05T18:50:26.425248,13.14501570,.00015631,87.8960,286.0334,101.5058,258.6248,0,U,55829,999,16187,.27173163E-3,.114E-5,0
ONEWEB-0671,2023-029AL,2026-07-05T18:57:57.902400,13.19725432,.00018204,87.9184,301.2705,103.8585,256.2751,0,U,55830,999,16135,-.13472334E-3,-.41E-6,0
ONEWEB-0672,2023-029AM,2026-07-06T04:24:56.825856,13.20770968,.00022032,87.9191,270.6497,93.0301,267.1084,0,U,55831,999,16365,-.26160162E-3,-.93E-6,0
ONEWEB-0673,2023-029AN,2026-07-05T20:14:08.897856,13.19724656,.00018243,87.9192,301.2529,102.6176,257.5161,0,U,55832,999,16136,.77724119E-4,.44E-6,0
ONEWEB-0674,2023-029AP,2026-07-05T23:33:34.921152,13.14500723,.00015713,87.8963,285.9710,98.9006,261.2301,0,U,55833,999,16188,-.16238678E-3,-.47E-6,0
ONEWEB-0675,2023-029AQ,2026-07-06T03:52:27.627168,13.19724228,.00022517,87.9183,301.1980,99.9110,260.2277,0,U,55834,999,16142,.10956921E-3,.57E-6,0
ONEWEB-0720,2023-029AR,2026-07-05T20:24:23.988960,13.19725545,.00019463,87.9183,301.2600,109.8459,250.2884,0,U,55835,999,16130,.20413836E-3,.95E-6,0
ONEWEB-0537,2023-043A,2026-07-06T02:49:41.580768,13.16593723,.00022457,87.9082,225.0114,91.1674,268.9715,0,U,56046,999,16145,-.58340042E-4,-.9E-7,0
ONEWEB-0538,2023-043B,2026-07-06T04:30:00.323136,13.16593731,.00022969,87.9083,225.0002,97.8043,262.3349,0,U,56047,999,16147,-.77090304E-4,-.17E-6,0
ONEWEB-0546,2023-043C,2026-07-06T04:11:45.933216,13.16593620,.00025217,87.9082,225.0030,82.2178,277.9239,0,U,56048,999,16146,.2333793E-3,.102E-5,0
ONEWEB-0547,2023-043D,2026-07-06T04:08:00.250368,13.21826918,.00021597,87.9245,240.1969,101.7228,258.4148,0,U,56049,999,16073,.19059873E-3,.92E-6,0
ONEWEB-0548,2023-043E,2026-07-06T02:57:39.739104,13.16593903,.00016802,87.9082,225.0088,87.4992,272.6331,0,U,56050,999,16145,-.11836367E-3,-.32E-6,0
ONEWEB-0549,2023-043F,2026-07-06T03:59:31.973856,13.21827102,.00024275,87.9238,240.2036,101.9728,258.1678,0,U,56051,999,16073,.10921756E-3,.58E-6,0
ONEWEB-0550,2023-043G,2026-07-06T03:40:10.106400,13.21826810,.00018589,87.9242,240.2041,96.6326,263.5019,0,U,56052,999,16073,.88722667E-4,.5E-6,0
ONEWEB-0551,2023-043H,2026-07-06T04:04:10.257888,13.15547096,.00022714,87.8991,255.4446,106.2144,253.9237,0,U,56053,999,15889,.5146688E-3,.207E-5,0
ONEWEB-0552,2023-043J,2026-07-06T03:32:52.361664,13.21826009,.00019823,87.9238,240.2102,102.7370,257.3985,0,U,56054,999,16073,.11236619E-3,.59E-6,0
ONEWEB-0553,2023-043K,2026-07-06T04:20:53.084544,13.16593372,.00021934,87.9082,225.0017,84.8023,275.3358,0,U,56055,999,16147,.67866757E-4,.39E-6,0
ONEWEB-0554,2023-043L,2026-07-06T02:13:12.948672,13.16593792,.00016077,87.9080,225.0281,87.2571,272.8744,0,U,56056,999,16144,.18053646E-3,.82E-6,0
ONEWEB-0555,2023-043M,2026-07-05T19:50:10.706784,13.16592828,.00024067,87.9082,225.0698,82.4093,277.7311,0,U,56057,999,16141,-.12080991E-3,-.33E-6,0
ONEWEB-0557,2023-043N,2026-07-06T03:28:26.468256,13.16593318,.00018134,87.9083,225.0165,57.1529,302.9777,0,U,56058,999,16145,-.8159818E-4,-.18E-6,0
ONEWEB-0558,2023-043P,2026-07-06T03:23:11.407200,13.21825510,.00023908,87.9240,240.2069,100.1434,259.9970,0,U,56059,999,16074,-.17887633E-4,.6E-7,0
ONEWEB-0559,2023-043Q,2026-07-06T03:06:13.027680,13.21826996,.00021481,87.9243,240.2047,103.0746,257.0628,0,U,56060,999,16075,.22206587E-4,.22E-6,0
ONEWEB-0566,2023-043R,2026-07-06T04:45:31.976928,13.21825553,.00021998,87.9241,240.1890,105.3435,254.7942,0,U,56061,999,16074,-.46785029E-3,-.18E-5,0
ONEWEB-0568,2023-043S,2026-07-06T03:53:32.345088,13.16595538,.00022304,87.9080,225.0024,88.6184,271.5202,0,U,56062,999,16147,.17951435E-3,.81E-6,0
ONEWEB-0574,2023-043T,2026-07-06T04:35:52.861056,13.21825328,.00019484,87.9247,240.1948,92.8962,267.2395,0,U,56063,999,16078,.38393447E-4,.29E-6,0
ONEWEB-0575,2023-043U,2026-07-06T03:44:24.552672,13.16595029,.00019171,87.9080,225.0001,83.0465,277.0884,0,U,56064,999,16146,-.29783579E-4,.1E-7,0
ONEWEB-0576,2023-043V,2026-07-06T03:17:02.446368,13.16595014,.00019716,87.9083,225.0122,88.8254,271.3103,0,U,56065,999,16145,-.11397986E-3,-.31E-6,0
ONEWEB-0577,2023-043W,2026-07-06T03:26:10.509216,13.16595065,.00015793,87.9084,225.0085,75.1363,284.9943,0,U,56066,999,16148,-.17811504E-3,-.55E-6,0
