[
  {
    "name": "ONEWEB-0667",
    "noradId": "55827",
    "line1": "1 55827U 23029AH  26187.19410461  .00000071  00000+0  14258-3 0  9993",
    "line2": "2 55827  87.9198 270.6441 0001906 101.7934 258.3413 13.20772744163650"
  },
  {
    "name": "ONEWEB-0669",
    "noradId": "55828",
    "line1": "1 55828U 23029AJ  26187.18904762  .00000141  00000+0  31458-3 0  9994",
    "line2": "2 55828  87.9189 270.6552 0001853  84.5191 275.6154 13.20772902163658"
  },
  {
    "name": "ONEWEB-0670",
    "noradId": "55829",
    "line1": "1 55829U 23029AK  26186.78502807  .00000114  00000+0  27173-3 0  9993",
    "line2": "2 55829  87.8960 286.0334 0001563 101.5058 258.6248 13.14501570161875"
  },
  {
    "name": "ONEWEB-0671",
    "noradId": "55830",
    "line1": "1 55830U 23029AL  26186.79025350 -.00000041  00000+0 -13472-3 0  9997",
    "line2": "2 55830  87.9184 301.2705 0001820 103.8585 256.2751 13.19725432161350"
  },
  {
    "name": "ONEWEB-0672",
    "noradId": "55831",
    "line1": "1 55831U 23029AM  26187.18399104 -.00000093  00000+0 -26160-3 0  9998",
    "line2": "2 55831  87.9191 270.6497 0002203  93.0301 267.1084 13.20770968163659"
  },
  {
    "name": "ONEWEB-0673",
    "noradId": "55832",
    "line1": "1 55832U 23029AN  26186.84315854  .00000044  00000+0  77724-4 0  9998",
    "line2": "2 55832  87.9192 301.2529 0001824 102.6176 257.5161 13.19724656161369"
  },
  {
    "name": "ONEWEB-0674",
    "noradId": "55833",
    "line1": "1 55833U 23029AP  26186.98165418 -.00000047  00000+0 -16239-3 0  9991",
    "line2": "2 55833  87.8963 285.9710 0001571  98.9006 261.2301 13.14500723161880"
  },
  {
    "name": "ONEWEB-0675",
    "noradId": "55834",
    "line1": "1 55834U 23029AQ  26187.16143087  .00000057  00000+0  10957-3 0  9991",
    "line2": "2 55834  87.9183 301.1980 0002251  99.9110 260.2277 13.19724228161423"
  },
  {
    "name": "ONEWEB-0720",
    "noradId": "55835",
    "line1": "1 55835U 23029AR  26186.85027765  .00000095  00000+0  20414-3 0  9992",
    "line2": "2 55835  87.9183 301.2600 0001946 109.8459 250.2884 13.19725545161304"
  },
  {
    "name": "ONEWEB-0537",
    "noradId": "56046",
    "line1": "1 56046U 23043A   26187.11784237 -.00000009  00000+0 -58340-4 0  9994",
    "line2": "2 56046  87.9082 225.0114 0002245  91.1674 268.9715 13.16593723161458"
  },
  {
    "name": "ONEWEB-0538",
    "noradId": "56047",
    "line1": "1 56047U 23043B   26187.18750374 -.00000017  00000+0 -77090-4 0  9999",
    "line2": "2 56047  87.9083 225.0002 0002296  97.8043 262.3349 13.16593731161477"
  },
  {
    "name": "ONEWEB-0546",
    "noradId": "56048",
    "line1": "1 56048U 23043C   26187.17483719  .00000102  00000+0  23338-3 0  9993",
    "line2": "2 56048  87.9082 225.0030 0002521  82.2178 277.9239 13.16593620161462"
  },
  {
    "name": "ONEWEB-0547",
    "noradId": "56049",
    "line1": "1 56049U 23043D   26187.17222512  .00000092  00000+0  19060-3 0  9991",
    "line2": "2 56049  87.9245 240.1969 0002159 101.7228 258.4148 13.21826918160730"
  },
  {
    "name": "ONEWEB-0548",
    "noradId": "56050",
    "line1": "1 56050U 23043E   26187.12337661 -.00000032  00000+0 -11836-3 0  9999",
    "line2": "2 56050  87.9082 225.0088 0001680  87.4992 272.6331 13.16593903161452"
  },
  {
    "name": "ONEWEB-0549",
    "noradId": "56051",
    "line1": "1 56051U 23043F   26187.16634229  .00000058  00000+0  10922-3 0  9995",
    "line2": "2 56051  87.9238 240.2036 0002427 101.9728 258.1678 13.21827102160737"
  },
  {
    "name": "ONEWEB-0550",
    "noradId": "56052",
    "line1": "1 56052U 23043G   26187.15289475  .00000050  00000+0  88723-4 0  9991",
    "line2": "2 56052  87.9242 240.2041 0001858  96.6326 263.5019 13.21826810160734"
  },
  {
    "name": "ONEWEB-0551",
    "noradId": "56053",
    "line1": "1 56053U 23043H   26187.16956317  .00000207  00000+0  51467-3 0  9997",
    "line2": "2 56053  87.8991 255.4446 0002271 106.2144 253.9237 13.15547096158896"
  },
  {
    "name": "ONEWEB-0552",
    "noradId": "56054",
    "line1": "1 56054U 23043J   26187.14782826  .00000059  00000+0  11237-3 0  9994",
    "line2": "2 56054  87.9238 240.2102 0001982 102.7370 257.3985 13.21826009160738"
  },
  {
    "name": "ONEWEB-0553",
    "noradId": "56055",
    "line1": "1 56055U 23043K   26187.18116996  .00000039  00000+0  67867-4 0  9997",
    "line2": "2 56055  87.9082 225.0017 0002193  84.8023 275.3358 13.16593372161476"
  },
  {
    "name": "ONEWEB-0554",
    "noradId": "56056",
    "line1": "1 56056U 23043L   26187.09251098  .00000082  00000+0  18054-3 0  9992",
    "line2": "2 56056  87.9080 225.0281 0001607  87.2571 272.8744 13.16593792161446"
  },
  {
    "name": "ONEWEB-0555",
    "noradId": "56057",
    "line1": "1 56057U 23043M   26186.82651281 -.00000033  00000+0 -12081-3 0  9993",
    "line2": "2 56057  87.9082 225.0698 0002406  82.4093 277.7311 13.16592828161415"
  },
  {
    "name": "ONEWEB-0557",
    "noradId": "56058",
    "line1": "1 56058U 23043N   26187.14475079 -.00000018  00000+0 -81598-4 0  9992",
    "line2": "2 56058  87.9083 225.0165 0001813  57.1529 302.9777 13.16593318161456"
  },
  {
    "name": "ONEWEB-0558",
    "noradId": "56059",
    "line1": "1 56059U 23043P   26187.14110425  .00000006  00000+0 -17888-4 0  9991",
    "line2": "2 56059  87.9240 240.2069 0002390 100.1434 259.9970 13.21825510160744"
  },
  {
    "name": "ONEWEB-0559",
    "noradId": "56060",
    "line1": "1 56060U 23043Q   26187.12931745  .00000022  00000+0  22207-4 0  9995",
    "line2": "2 56060  87.9243 240.2047 0002148 103.0746 257.0628 13.21826996160753"
  },
  {
    "name": "ONEWEB-0566",
    "noradId": "56061",
    "line1": "1 56061U 23043R   26187.19828677 -.00000180  00000+0 -46785-3 0  9995",
    "line2": "2 56061  87.9241 240.1890 0002199 105.3435 254.7942 13.21825553160743"
  },
  {
    "name": "ONEWEB-0568",
    "noradId": "56062",
    "line1": "1 56062U 23043S   26187.16217992  .00000081  00000+0  17951-3 0  9996",
    "line2": "2 56062  87.9080 225.0024 0002230  88.6184 271.5202 13.16595538161474"
  },
  {
    "name": "ONEWEB-0574",
    "noradId": "56063",
    "line1": "1 56063U 23043T   26187.19158404  .00000029  00000+0  38393-4 0  9998",
    "line2": "2 56063  87.9247 240.1948 0001948  92.8962 267.2395 13.21825328160786"
  },
  {
    "name": "ONEWEB-0575",
    "noradId": "56064",
    "line1": "1 56064U 23043U   26187.15583973  .00000001  00000+0 -29784-4 0  9993",
    "line2": "2 56064  87.9080 225.0001 0001917  83.0465 277.0884 13.16595029161464"
  },
  {
    "name": "ONEWEB-0576",
    "noradId": "56065",
    "line1": "1 56065U 23043V   26187.13683387 -.00000031  00000+0 -11398-3 0  9997",
    "line2": "2 56065  87.9083 225.0122 0001971  88.8254 271.3103 13.16595014161455"
  },
  {
    "name": "ONEWEB-0577",
    "noradId": "56066",
    "line1": "1 56066U 23043W   26187.14317719 -.00000055  00000+0 -17812-3 0  9995",
    "line2": "2 56066  87.9084 225.0085 0001579  75.1363 284.9943 13.16595065161480"
  }
]